{"type": "FeatureCollection", "features": [ {"type": "Feature", "properties": {"norad_id": 38055, "name": "COSMOS 2251 DEB", "group": "cosmos-2251-debris", "lat": 21.250655624879492, "lon": -7.829828261747334, "alt_km": 676.0475952096212, "timestamp": "2025-12-27T02:10:16.587000+00:00", "meta": {"OBJECT_NAME": "COSMOS 2251 DEB", "OBJECT_ID": "1993-036BRM", "EPOCH": "2025-12-26T04:52:48.177696", "MEAN_MOTION": 14.77111908, "ECCENTRICITY": 0.00661826, "INCLINATION": 74.0079, "RA_OF_ASC_NODE": 180.3155, "ARG_OF_PERICENTER": 305.0228, "MEAN_ANOMALY": 177.6767, "EPHEMERIS_TYPE": 0, "CLASSIFICATION_TYPE": "U", "NORAD_CAT_ID": 38055, "ELEMENT_SET_NO": 999, "REV_AT_EPOCH": 60881, "BSTAR": 0.00074914233, "MEAN_MOTION_DOT": 5.457e-05, "MEAN_MOTION_DDOT": 0}, "tle": {"line1": "1 38055U 93036BRM 25360.20333539  .00005457  00000+0  74914-3 0  9994", "line2": "2 38055  74.0079 180.3155 0066182 305.0228 177.6767 14.77111908608819"}}, "geometry": {"type": "Point", "coordinates": [-7.829828261747334, 21.250655624879492]}}, {"type": "Feature", "properties": {"norad_id": 38060, "name": "COSMOS 2251 DEB", "group": "cosmos-2251-debris", "lat": 60.39992203189139, "lon": -61.99523021777505, "alt_km": 650.1945197255609, "timestamp": "2025-12-27T02:10:16.587010+00:00", "meta": {"OBJECT_NAME": "COSMOS 2251 DEB", "OBJECT_ID": "1993-036BRS", "EPOCH": "2025-12-25T12:09:27.527040", "MEAN_MOTION": 14.63928646, "ECCENTRICITY": 0.0058702, "INCLINATION": 74.0433, "RA_OF_ASC_NODE": 270.8015, "ARG_OF_PERICENTER": 13.4821, "MEAN_ANOMALY": 346.7897, "EPHEMERIS_TYPE": 0, "CLASSIFICATION_TYPE": "U", "NORAD_CAT_ID": 38060, "ELEMENT_SET_NO": 999, "REV_AT_EPOCH": 72151, "BSTAR": 0.00055069, "MEAN_MOTION_DOT": 2.924e-05, "MEAN_MOTION_DDOT": 0}, "tle": {"line1": "1 38060U 93036BRS 25359.50656860  .00002924  00000+0  55069-3 0  9992", "line2": "2 38060  74.0433 270.8015 0058702  13.4821 346.7897 14.63928646721513"}}, "geometry": {"type": "Point", "coordinates": [-61.99523021777505, 60.39992203189139]}}, {"type": "Feature", "properties": {"norad_id": 38062, "name": "COSMOS 2251 DEB", "group": "cosmos-2251-debris", "lat": -25.738751630659362, "lon": 89.42508578174025, "alt_km": 595.4077957220188, "timestamp": "2025-12-27T02:10:16.587020+00:00", "meta": {"OBJECT_NAME": "COSMOS 2251 DEB", "OBJECT_ID": "1993-036BRU", "EPOCH": "2025-12-20T12:40:12.328608", "MEAN_MOTION": 14.95206267, "ECCENTRICITY": 0.00129431, "INCLINATION": 74.0088, "RA_OF_ASC_NODE": 274.7346, "ARG_OF_PERICENTER": 42.7602, "MEAN_ANOMALY": 131.9089, "EPHEMERIS_TYPE": 0, "CLASSIFICATION_TYPE": "U", "NORAD_CAT_ID": 38062, "ELEMENT_SET_NO": 999, "REV_AT_EPOCH": 63146, "BSTAR": 0.0014745207, "MEAN_MOTION_DOT": 0.00016237, "MEAN_MOTION_DDOT": 0}, "tle": {"line1": "1 38062U 93036BRU 25354.52792047  .00016237  00000+0  14745-2 0  9996", "line2": "2 38062  74.0088 274.7346 0012943  42.7602 131.9089 14.95206267631464"}}, "geometry": {"type": "Point", "coordinates": [89.42508578174025, -25.738751630659362]}}, {"type": "Feature", "properties": {"norad_id": 38064, "name": "COSMOS 2251 DEB", "group": "cosmos-2251-debris", "lat": -69.84643403372537, "lon": 45.573285660384755, "alt_km": 699.411813525724, "timestamp": "2025-12-27T02:10:16.587030+00:00", "meta": {"OBJECT_NAME": "COSMOS 2251 DEB", "OBJECT_ID": "1993-036BRW", "EPOCH": "2025-12-24T00:20:31.022880", "MEAN_MOTION": 14.5638999, "ECCENTRICITY": 0.00470717, "INCLINATION": 74.023, "RA_OF_ASC_NODE": 102.7307, "ARG_OF_PERICENTER": 220.4178, "MEAN_ANOMALY": 139.3486, "EPHEMERIS_TYPE": 0, "CLASSIFICATION_TYPE": "U", "NORAD_CAT_ID": 38064, "ELEMENT_SET_NO": 999, "REV_AT_EPOCH": 72029, "BSTAR": 0.0010077447, "MEAN_MOTION_DOT": 4.512e-05, "MEAN_MOTION_DDOT": 0}, "tle": {"line1": "1 38064U 93036BRW 25358.01424795  .00004512  00000+0  10077-2 0  9995", "line2": "2 38064  74.0230 102.7307 0047071 220.4178 139.3486 14.56389990720290"}}, "geometry": {"type": "Point", "coordinates": [45.573285660384755, -69.84643403372537]}}, {"type": "Feature", "properties": {"norad_id": 38067, "name": "COSMOS 2251 DEB", "group": "cosmos-2251-debris", "lat": 28.296136033059735, "lon": 58.159525906904854, "alt_km": 711.9008951487122, "timestamp": "2025-12-27T02:10:16.587040+00:00", "meta": {"OBJECT_NAME": "COSMOS 2251 DEB", "OBJECT_ID": "1993-036BRZ", "EPOCH": "2025-12-26T11:29:24.952992", "MEAN_MOTION": 14.61174653, "ECCENTRICITY": 0.0070045, "INCLINATION": 74.0162, "RA_OF_ASC_NODE": 248.2067, "ARG_OF_PERICENTER": 32.1655, "MEAN_ANOMALY": 141.0847, "EPHEMERIS_TYPE": 0, "CLASSIFICATION_TYPE": "U", "NORAD_CAT_ID": 38067, "ELEMENT_SET_NO": 999, "REV_AT_EPOCH": 62756, "BSTAR": 0.00033487, "MEAN_MOTION_DOT": 1.676e-05, "MEAN_MOTION_DDOT": 0}, "tle": {"line1": "1 38067U 93036BRZ 25360.47876103  .00001676  00000+0  33487-3 0  9994", "line2": "2 38067  74.0162 248.2067 0070045  32.1655 141.0847 14.61174653627562"}}, "geometry": {"type": "Point", "coordinates": [58.159525906904854, 28.296136033059735]}}, {"type": "Feature", "properties": {"norad_id": 38068, "name": "COSMOS 2251 DEB", "group": "cosmos-2251-debris", "lat": 52.8186566762535, "lon": -55.94513433996563, "alt_km": 754.7835144707651, "timestamp": "2025-12-27T02:10:16.587050+00:00", "meta": {"OBJECT_NAME": "COSMOS 2251 DEB", "OBJECT_ID": "1993-036BSA", "EPOCH": "2025-12-26T12:32:13.592256", "MEAN_MOTION": 14.36020492, "ECCENTRICITY": 0.0025088, "INCLINATION": 74.0217, "RA_OF_ASC_NODE": 282.905, "ARG_OF_PERICENTER": 7.3402, "MEAN_ANOMALY": 352.8113, "EPHEMERIS_TYPE": 0, "CLASSIFICATION_TYPE": "U", "NORAD_CAT_ID": 38068, "ELEMENT_SET_NO": 999, "REV_AT_EPOCH": 66844, "BSTAR": 0.00030529, "MEAN_MOTION_DOT": 8.64e-06, "MEAN_MOTION_DDOT": 0}, "tle": {"line1": "1 38068U 93036BSA 25360.52237954  .00000864  00000+0  30529-3 0  9998", "line2": "2 38068  74.0217 282.9050 0025088   7.3402 352.8113 14.36020492668445"}}, "geometry": {"type": "Point", "coordinates": [-55.94513433996563, 52.8186566762535]}}, {"type": "Feature", "properties": {"norad_id": 38197, "name": "COSMOS 2251 DEB", "group": "cosmos-2251-debris", "lat": -42.680580997306635, "lon": 164.26341594848176, "alt_km": 571.1702672691399, "timestamp": "2025-12-27T02:10:16.587060+00:00", "meta": {"OBJECT_NAME": "COSMOS 2251 DEB", "OBJECT_ID": "1993-036BSM", "EPOCH": "2025-12-22T15:18:58.604256", "MEAN_MOTION": 14.74460834, "ECCENTRICITY": 0.01247811, "INCLINATION": 73.938, "RA_OF_ASC_NODE": 337.6017, "ARG_OF_PERICENTER": 212.6548, "MEAN_ANOMALY": 146.6868, "EPHEMERIS_TYPE": 0, "CLASSIFICATION_TYPE": "U", "NORAD_CAT_ID": 38197, "ELEMENT_SET_NO": 999, "REV_AT_EPOCH": 85901, "BSTAR": 0.0030808591, "MEAN_MOTION_DOT": 0.00023252, "MEAN_MOTION_DDOT": 0}, "tle": {"line1": "1 38197U 93036BSM 25356.63817829  .00023252  00000+0  30809-2 0  9999", "line2": "2 38197  73.9380 337.6017 0124781 212.6548 146.6868 14.74460834859011"}}, "geometry": {"type": "Point", "coordinates": [164.26341594848176, -42.680580997306635]}}, {"type": "Feature", "properties": {"norad_id": 38199, "name": "COSMOS 2251 DEB", "group": "cosmos-2251-debris", "lat": 55.63210716892252, "lon": -166.27337199433484, "alt_km": 1266.026208785439, "timestamp": "2025-12-27T02:10:16.587071+00:00", "meta": {"OBJECT_NAME": "COSMOS 2251 DEB", "OBJECT_ID": "1993-036BSP", "EPOCH": "2025-12-26T11:30:15.579072", "MEAN_MOTION": 13.64814422, "ECCENTRICITY": 0.0370315, "INCLINATION": 73.9556, "RA_OF_ASC_NODE": 39.6133, "ARG_OF_PERICENTER": 323.3763, "MEAN_ANOMALY": 34.254, "EPHEMERIS_TYPE": 0, "CLASSIFICATION_TYPE": "U", "NORAD_CAT_ID": 38199, "ELEMENT_SET_NO": 999, "REV_AT_EPOCH": 61209, "BSTAR": 0.00067322, "MEAN_MOTION_DOT": 8.42e-06, "MEAN_MOTION_DDOT": 0}, "tle": {"line1": "1 38199U 93036BSP 25360.47934698  .00000842  00000+0  67322-3 0  9993", "line2": "2 38199  73.9556  39.6133 0370315 323.3763  34.2540 13.64814422612099"}}, "geometry": {"type": "Point", "coordinates": [-166.27337199433484, 55.63210716892252]}}, {"type": "Feature", "properties": {"norad_id": 38208, "name": "COSMOS 2251 DEB", "group": "cosmos-2251-debris", "lat": -39.54878009398526, "lon": 36.70304221857663, "alt_km": 621.9720600640321, "timestamp": "2025-12-27T02:10:16.587081+00:00", "meta": {"OBJECT_NAME": "COSMOS 2251 DEB", "OBJECT_ID": "1993-036BSY", "EPOCH": "2025-12-26T10:15:20.422944", "MEAN_MOTION": 14.8437794, "ECCENTRICITY": 8.48e-05, "INCLINATION": 74.0044, "RA_OF_ASC_NODE": 51.7225, "ARG_OF_PERICENTER": 86.2803, "MEAN_ANOMALY": 290.0795, "EPHEMERIS_TYPE": 0, "CLASSIFICATION_TYPE": "U", "NORAD_CAT_ID": 38208, "ELEMENT_SET_NO": 999, "REV_AT_EPOCH": 71362, "BSTAR": 0.0021793, "MEAN_MOTION_DOT": 0.00018329, "MEAN_MOTION_DDOT": 0}, "tle": {"line1": "1 38208U 93036BSY 25360.42731971  .00018329  00000+0  21793-2 0  9998", "line2": "2 38208  74.0044  51.7225 0000848  86.2803 290.0795 14.84377940713629"}}, "geometry": {"type": "Point", "coordinates": [36.70304221857663, -39.54878009398526]}}, {"type": "Feature", "properties": {"norad_id": 38212, "name": "COSMOS 2251 DEB", "group": "cosmos-2251-debris", "lat": -58.69586723684941, "lon": 20.41671766434761, "alt_km": 707.4101117013079, "timestamp": "2025-12-27T02:10:16.587091+00:00", "meta": {"OBJECT_NAME": "COSMOS 2251 DEB", "OBJECT_ID": "1993-036BTC", "EPOCH": "2025-12-19T04:21:29.490912", "MEAN_MOTION": 14.77722254, "ECCENTRICITY": 0.0092064, "INCLINATION": 74.0528, "RA_OF_ASC_NODE": 63.9673, "ARG_OF_PERICENTER": 129.0689, "MEAN_ANOMALY": 231.8724, "EPHEMERIS_TYPE": 0, "CLASSIFICATION_TYPE": "U", "NORAD_CAT_ID": 38212, "ELEMENT_SET_NO": 999, "REV_AT_EPOCH": 81405, "BSTAR": 0.00027193732, "MEAN_MOTION_DOT": 2.056e-05, "MEAN_MOTION_DDOT": 0}, "tle": {"line1": "1 38212U 93036BTC 25353.18159133  .00002056  00000+0  27194-3 0  9994", "line2": "2 38212  74.0528  63.9673 0092064 129.0689 231.8724 14.77722254814050"}}, "geometry": {"type": "Point", "coordinates": [20.41671766434761, -58.69586723684941]}}]}